NORAD_CAT_ID,OBJECT_NAME,OBJECT_TYPE,EPOCH,MEAN_MOTION,ECCENTRICITY,INCLINATION,RA_OF_ASC_NODE,ARG_OF_PERICENTER,MEAN_ANOMALY,BSTAR,MEAN_MOTION_DOT,MEAN_MOTION_DDOT,TLE_LINE0,TLE_LINE1,TLE_LINE2,SEMIMAJOR_AXIS,PERIOD,APOGEE,PERIGEE,DECAYED
53142.0,STARLINK-4101,PAYLOAD,2024-02-18 22:49:38,15.08842538,9.09e-05,53.2165,299.8303,87.1646,272.945,0.00010727,1.42e-05,0.0,0 STARLINK-4101,1 53142U 22083L   24049.95113601  .00001420  00000-0  10727-3 0  9992,2 53142  53.2165 299.8303 0000909  87.1646 272.9450 15.08842538 88046,6917.873,95.437,540.366,539.109,0.0
53142.0,STARLINK-4101,PAYLOAD,2024-02-19 02:00:23,15.08858013,0.0001328,53.2176,299.2352,92.582,267.5325,6.5808e-05,7.6e-06,0.0,0 STARLINK-4101,1 53142U 22083L   24050.08360783  .00000760  00000-0  65808-4 0  9990,2 53142  53.2176 299.2352 0001328  92.5820 267.5325 15.08858013 88682,6917.825,95.436,540.609,538.772,0.0
53142.0,STARLINK-4101,PAYLOAD,2024-02-19 09:57:20,15.08843168,0.0001297,53.2207,297.7465,75.6193,284.4943,3.2411e-06,-2.36e-06,0.0,0 STARLINK-4101,1 53142U 22083L   24050.41481868 -.00000236  00000-0  32411-5 0  9999,2 53142  53.2207 297.7465 0001297  75.6193 284.4943 15.08843168 88730,6917.871,95.437,540.633,538.838,0.0
53142.0,STARLINK-4101,PAYLOAD,2024-02-19 16:18:53,15.08829508,0.0001626,53.2169,296.5579,78.1677,281.9498,1.5912e-05,-3.5e-07,0.0,0 STARLINK-4101,1 53142U 22083L   24050.67978852 -.00000035  00000-0  15912-4 0  9994,2 53142  53.2169 296.5579 0001626  78.1677 281.9498 15.08829508 88774,6917.912,95.438,540.902,538.653,0.0
53142.0,STARLINK-4101,PAYLOAD,2024-02-19 22:40:26,15.08828186,0.0001488,53.2173,295.3687,84.149,275.9672,1.1452e-05,-1.06e-06,0.0,0 STARLINK-4101,1 53142U 22083L   24050.94475001 -.00000106  00000-0  11452-4 0  9996,2 53142  53.2173 295.3687 0001488  84.1490 275.9672 15.08828186 88196,6917.916,95.438,540.811,538.752,0.0
53142.0,STARLINK-4101,PAYLOAD,2024-02-20 09:48:07,15.08839313,0.0001452,53.2176,293.2866,86.6394,273.4764,2.4329e-05,9.9e-07,0.0,0 STARLINK-4101,1 53142U 22083L   24051.40842362  .00000099  00000-0  24329-4 0  9993,2 53142  53.2176 293.2866 0001452  86.6394 273.4764 15.08839313 88881,6917.882,95.438,540.752,538.743,0.0
53142.0,STARLINK-4101,PAYLOAD,2024-02-20 19:20:25,15.08849673,0.0001493,53.2165,291.5029,82.3423,277.7739,8.9231e-05,1.133e-05,0.0,0 STARLINK-4101,1 53142U 22083L   24051.80585444  .00001133  00000-0  89231-4 0  9995,2 53142  53.2165 291.5029 0001493  82.3423 277.7739 15.08849673 88948,6917.851,95.437,540.749,538.683,0.0
53142.0,STARLINK-4101,PAYLOAD,2024-02-20 22:31:11,15.08854565,0.0001455,53.2172,290.9073,87.3631,272.7527,6.0196e-05,6.71e-06,0.0,0 STARLINK-4101,1 53142U 22083L   24051.93833139  .00000671  00000-0  60196-4 0  9991,2 53142  53.2172 290.9073 0001455  87.3631 272.7527 15.08854565 88342,6917.836,95.437,540.707,538.694,0.0
53142.0,STARLINK-4101,PAYLOAD,2024-02-21 19:11:13,15.08833587,0.0001487,53.217,287.0419,103.6572,256.4585,0.00012133,1.643e-05,0.0,0 STARLINK-4101,1 53142U 22083L   24052.79946158  .00001643  00000-0  12133-3 0  9999,2 53142  53.2170 287.0419 0001487 103.6572 256.4585 15.08833587 89099,6917.9,95.438,540.794,538.736,0.0
53142.0,STARLINK-4101,PAYLOAD,2024-02-21 22:21:59,15.08833179,0.0001539,53.2175,286.4473,86.2126,273.9043,0.0001161,1.56e-05,0.0,0 STARLINK-4101,1 53142U 22083L   24052.93194290  .00001560  00000-0  11610-3 0  9994,2 53142  53.2175 286.4473 0001539  86.2126 273.9043 15.08833179 88499,6917.901,95.438,540.831,538.702,0.0
53142.0,STARLINK-4101,PAYLOAD,2024-02-22 07:54:18,15.08834135,0.0001398,53.2169,284.6617,84.0716,276.0435,4.5722e-05,4.4e-06,0.0,0 STARLINK-4101,1 53142U 22083L   24053.32938507  .00000440  00000-0  45722-4 0  9993,2 53142  53.2169 284.6617 0001398  84.0716 276.0435 15.08834135 88555,6917.898,95.438,540.73,538.796,0.0
53142.0,STARLINK-4101,PAYLOAD,2024-02-22 22:12:46,15.08847165,0.0001354,53.2166,281.985,87.5653,272.5495,-2.7623e-05,-7.28e-06,0.0,0 STARLINK-4101,1 53142U 22083L   24053.92553828 -.00000728  00000-0 -27623-4 0  9999,2 53142  53.2166 281.9850 0001354  87.5653 272.5495 15.08847165 88645,6917.858,95.437,540.66,538.787,0.0
53142.0,STARLINK-4101,PAYLOAD,2024-02-23 07:45:05,15.08847721,0.0001399,53.2169,280.201,81.6754,278.4397,-3.1007e-05,-7.82e-06,0.0,0 STARLINK-4101,1 53142U 22083L   24054.32297594 -.00000782  00000-0 -31007-4 0  9990,2 53142  53.2169 280.2010 0001399  81.6754 278.4397 15.08847721 88705,6917.857,95.437,540.69,538.754,0.0
53142.0,STARLINK-4101,PAYLOAD,2024-02-23 20:28:11,15.08834757,0.0001359,53.218,277.8266,98.1369,261.9778,2.3624e-05,8.8e-07,0.0,0 STARLINK-4101,1 53142U 22083L   24054.85290510  .00000088  00000-0  23624-4 0  9992,2 53142  53.2180 277.8266 0001359  98.1369 261.9778 15.08834757 89407,6917.896,95.438,540.702,538.821,0.0
53142.0,STARLINK-4101,PAYLOAD,2024-02-23 22:03:34,15.08834397,0.000137,53.218,277.5291,97.8044,262.3103,1.8193e-05,2e-08,0.0,0 STARLINK-4101,1 53142U 22083L   24054.91914550  .00000002  00000-0  18193-4 0  9997,2 53142  53.2180 277.5291 0001370  97.8044 262.3103 15.08834397 88799,6917.898,95.438,540.71,538.815,0.0
53142.0,STARLINK-4101,PAYLOAD,2024-02-24 07:35:52,15.08848602,9.77e-05,53.2178,275.7448,94.7071,265.4033,-0.00018552,-3.24e-05,0.0,0 STARLINK-4101,1 53142U 22083L   24055.31658290 -.00003240  00000-0 -18552-3 0  9995,2 53142  53.2178 275.7448 0000977  94.7071 265.4033 15.08848602 89474,6917.854,95.437,540.395,539.043,0.0
53142.0,STARLINK-4101,PAYLOAD,2024-02-24 13:57:26,15.08803897,0.0001327,53.2177,274.5552,91.4287,268.6857,0.00047517,7.275e-05,0.0,0 STARLINK-4101,1 53142U 22083L   24055.58155828  .00007275  00000-0  47517-3 0  9996,2 53142  53.2177 274.5552 0001327  91.4287 268.6857 15.08803897 88890,6917.991,95.44,540.774,538.938,0.0
53142.0,STARLINK-4101,PAYLOAD,2024-02-24 23:29:44,15.08838086,0.0001389,53.2175,272.771,95.2534,264.8617,-9.969e-07,-3.04e-06,0.0,0 STARLINK-4101,1 53142U 22083L   24055.97898742 -.00000304  00000-0 -99690-6 0  9998,2 53142  53.2175 272.7710 0001389  95.2534 264.8617 15.08838086 89575,6917.886,95.438,540.712,538.79,0.0
53142.0,STARLINK-4101,PAYLOAD,2024-02-25 13:48:12,15.08838303,0.000128,53.2167,270.0934,85.3251,274.7887,9.8717e-05,1.283e-05,0.0,0 STARLINK-4101,1 53142U 22083L   24056.57514436  .00001283  00000-0  98717-4 0  9992,2 53142  53.2167 270.0934 0001280  85.3251 274.7887 15.08838303 89044,6917.886,95.438,540.636,538.865,0.0
53142.0,STARLINK-4101,PAYLOAD,2024-02-25 21:45:07,15.08845805,0.0001345,53.2169,268.6066,84.3571,275.7575,0.00012008,1.624e-05,0.0,0 STARLINK-4101,1 53142U 22083L   24056.90633953  .00001624  00000-0  12008-3 0  9992,2 53142  53.2169 268.6066 0001345  84.3571 275.7575 15.08845805 89096,6917.863,95.437,540.658,538.797,0.0
53142.0,STARLINK-4101,PAYLOAD,2024-02-26 13:38:59,15.08837661,0.0001484,53.2178,265.633,81.8152,278.3008,6.4521e-05,7.39e-06,0.0,0 STARLINK-4101,1 53142U 22083L   24057.56874746  .00000739  00000-0  64521-4 0  9996,2 53142  53.2178 265.6330 0001484  81.8152 278.3008 15.08837661 89190,6917.888,95.438,540.779,538.726,0.0
53142.0,STARLINK-4101,PAYLOAD,2024-02-26 20:00:32,15.08837262,0.0001385,53.2163,264.4434,84.1063,276.0087,3.5885e-05,2.83e-06,0.0,0 STARLINK-4101,1 53142U 22083L   24057.83370837  .00000283  00000-0  35885-4 0  9993,2 53142  53.2163 264.4434 0001385  84.1063 276.0087 15.08837262 89855,6917.889,95.438,540.712,538.796,0.0
53142.0,STARLINK-4101,PAYLOAD,2024-02-27 07:08:14,15.08839486,0.0001408,53.2163,262.3622,83.7976,276.3177,2.2418e-05,6.9e-07,0.0,0 STARLINK-4101,1 53142U 22083L   24058.29738759  .00000069  00000-0  22418-4 0  9995,2 53142  53.2163 262.3622 0001408  83.7976 276.3177 15.08839486 89308,6917.882,95.438,540.721,538.773,0.0
53142.0,STARLINK-4101,PAYLOAD,2024-02-27 19:51:19,15.0883585,0.0001391,53.2166,259.9828,88.7239,271.3912,9.7367e-05,1.262e-05,0.0,0 STARLINK-4101,1 53142U 22083L   24058.82730791  .00001262  00000-0  97367-4 0  9993,2 53142  53.2166 259.9828 0001391  88.7239 271.3912 15.08835850 89380,6917.893,95.438,540.72,538.796,0.0
53142.0,STARLINK-4101,PAYLOAD,2024-02-27 23:02:05,15.08845711,0.0001371,53.2164,259.3868,89.0206,271.0943,1.1416e-07,-2.86e-06,0.0,0 STARLINK-4101,1 53142U 22083L   24058.95978350 -.00000286  00000-0  11416-6 0  9991,2 53142  53.2164 259.3868 0001371  89.0206 271.0943 15.08845711 90023,6917.863,95.437,540.676,538.779,0.0
53142.0,STARLINK-4101,PAYLOAD,2024-02-28 13:20:33,15.08840806,0.0001497,53.2163,256.7094,95.81,264.3063,-3.3231e-05,-8.17e-06,0.0,0 STARLINK-4101,1 53142U 22083L   24059.55594836 -.00000817  00000-0 -33231-4 0  9999,2 53142  53.2163 256.7094 0001497  95.8100 264.3063 15.08840806 89498,6917.878,95.438,540.779,538.707,0.0
53142.0,STARLINK-4101,PAYLOAD,2024-02-28 19:42:06,15.08837841,0.0001487,53.2168,255.5198,104.1888,255.9269,2.9965e-05,1.89e-06,0.0,0 STARLINK-4101,1 53142U 22083L   24059.82090752  .00000189  00000-0  29965-4 0  9996,2 53142  53.2168 255.5198 0001487 104.1888 255.9269 15.08837841 90155,6917.887,95.438,540.781,538.723,0.0
53142.0,STARLINK-4101,PAYLOAD,2024-02-29 13:11:21,15.08834506,0.0001407,53.2168,252.2506,91.6877,268.4276,1.4119e-05,-6.3e-07,0.0,0 STARLINK-4101,1 53142U 22083L   24060.54955246 -.00000063  00000-0  14119-4 0  9992,2 53142  53.2168 252.2506 0001407  91.6877 268.4276 15.08834506 89646,6917.897,95.438,540.736,538.789,0.0
53142.0,STARLINK-4101,PAYLOAD,2024-02-29 19:32:53,15.0883489,0.000138,53.2165,251.0612,95.4693,264.6456,1.4563e-05,-5.6e-07,0.0,0 STARLINK-4101,1 53142U 22083L   24060.81451273 -.00000056  00000-0  14563-4 0  9998,2 53142  53.2165 251.0612 0001380  95.4693 264.6456 15.08834890 89684,6917.896,95.438,540.716,538.806,0.0
53142.0,STARLINK-4101,PAYLOAD,2024-03-01 13:02:07,15.0884203,0.0001262,53.2161,247.7893,94.9204,265.1932,6.1795e-05,6.96e-06,0.0,0 STARLINK-4101,1 53142U 22083L   24061.54314779  .00000696  00000-0  61795-4 0  9996,2 53142  53.2161 247.7893 0001262  94.9204 265.1932 15.08842030 89796,6917.874,95.437,540.612,538.866,0.0
